{
  "type": "FeatureCollection",
  "features": [
    {
      "type": "Feature",
      "properties": {
        "norad_id": 34571,
        "name": "COSMOS 2251 DEB",
        "group": "cosmos-2251-debris",
        "lat": 68.01824894599002,
        "lon": -149.2006879626815,
        "alt_km": 747.8065635544281,
        "timestamp": "2025-12-21T16:47:55.133573+00:00",
        "meta_object_name": "COSMOS 2251 DEB",
        "meta_object_id": "1993-036VH",
        "meta_epoch": "2025-12-21T11:28:48.283104",
        "meta_mean_motion": 14.4894103,
        "meta_eccentricity": 0.0065245,
        "meta_inclination": 74.0376,
        "meta_ra_of_asc_node": 166.0548,
        "meta_arg_of_pericenter": 199.1234,
        "meta_mean_anomaly": 160.7476,
        "meta_ephemeris_type": 0,
        "meta_classification_type": "U",
        "meta_norad_cat_id": 34571,
        "meta_element_set_no": 999,
        "meta_rev_at_epoch": 87420,
        "meta_bstar": 0.0018811,
        "meta_mean_motion_dot": 7.299e-05,
        "meta_mean_motion_ddot": 0,
        "tle_line1": "1 34571U 93036VH  25355.47833661  .00007299  00000+0  18811-2 0  9996",
        "tle_line2": "2 34571  74.0376 166.0548 0065245 199.1234 160.7476 14.48941030874206"
      },
      "geometry": {
        "type": "Point",
        "coordinates": [
          -149.2006879626815,
          68.01824894599002
        ]
      }
    },
    {
      "type": "Feature",
      "properties": {
        "norad_id": 34572,
        "name": "COSMOS 2251 DEB",
        "group": "cosmos-2251-debris",
        "lat": -21.814697135036425,
        "lon": 92.06129268533037,
        "alt_km": 772.8768567676434,
        "timestamp": "2025-12-21T16:47:55.133583+00:00",
        "meta_object_name": "COSMOS 2251 DEB",
        "meta_object_id": "1993-036VJ",
        "meta_epoch": "2025-12-19T08:52:33.083040",
        "meta_mean_motion": 14.50137544,
        "meta_eccentricity": 0.0061983,
        "meta_inclination": 74.0111,
        "meta_ra_of_asc_node": 103.0332,
        "meta_arg_of_pericenter": 175.7717,
        "meta_mean_anomaly": 241.8877,
        "meta_ephemeris_type": 0,
        "meta_classification_type": "U",
        "meta_norad_cat_id": 34572,
        "meta_element_set_no": 999,
        "meta_rev_at_epoch": 87474,
        "meta_bstar": 0.0016719,
        "meta_mean_motion_dot": 6.633e-05,
        "meta_mean_motion_ddot": 0,
        "tle_line1": "1 34572U 93036VJ  25353.36982735  .00006633  00000+0  16719-2 0  9996",
        "tle_line2": "2 34572  74.0111 103.0332 0061983 175.7717 241.8877 14.50137544874742"
      },
      "geometry": {
        "type": "Point",
        "coordinates": [
          92.06129268533037,
          -21.814697135036425
        ]
      }
    },
    {
      "type": "Feature",
      "properties": {
        "norad_id": 34574,
        "name": "COSMOS 2251 DEB",
        "group": "cosmos-2251-debris",
        "lat": 12.040584933606928,
        "lon": -157.7170152113846,
        "alt_km": 685.656709238544,
        "timestamp": "2025-12-21T16:47:55.133593+00:00",
        "meta_object_name": "COSMOS 2251 DEB",
        "meta_object_id": "1993-036VL",
        "meta_epoch": "2025-12-21T01:28:19.433856",
        "meta_mean_motion": 14.70684173,
        "meta_eccentricity": 0.00671343,
        "meta_inclination": 74.0681,
        "meta_ra_of_asc_node": 27.0127,
        "meta_arg_of_pericenter": 45.3067,
        "meta_mean_anomaly": 341.7255,
        "meta_ephemeris_type": 0,
        "meta_classification_type": "U",
        "meta_norad_cat_id": 34574,
        "meta_element_set_no": 999,
        "meta_rev_at_epoch": 88901,
        "meta_bstar": 0.00057735458,
        "meta_mean_motion_dot": 3.61e-05,
        "meta_mean_motion_ddot": 0,
        "tle_line1": "1 34574U 93036VL  25355.06133604  .00003610  00000+0  57735-3 0  9996",
        "tle_line2": "2 34574  74.0681  27.0127 0067134  45.3067 341.7255 14.70684173889010"
      },
      "geometry": {
        "type": "Point",
        "coordinates": [
          -157.7170152113846,
          12.040584933606928
        ]
      }
    },
    {
      "type": "Feature",
      "properties": {
        "norad_id": 34576,
        "name": "COSMOS 2251 DEB",
        "group": "cosmos-2251-debris",
        "lat": 6.360048918145159,
        "lon": 123.05049830202749,
        "alt_km": 711.3714547480004,
        "timestamp": "2025-12-21T16:47:55.133603+00:00",
        "meta_object_name": "COSMOS 2251 DEB",
        "meta_object_id": "1993-036VN",
        "meta_epoch": "2025-12-21T08:40:17.711904",
        "meta_mean_motion": 14.55479899,
        "meta_eccentricity": 0.0008247,
        "meta_inclination": 74.0346,
        "meta_ra_of_asc_node": 121.8632,
        "meta_arg_of_pericenter": 259.4419,
        "meta_mean_anomaly": 133.6081,
        "meta_ephemeris_type": 0,
        "meta_classification_type": "U",
        "meta_norad_cat_id": 34576,
        "meta_element_set_no": 999,
        "meta_rev_at_epoch": 88592,
        "meta_bstar": 0.00064874,
        "meta_mean_motion_dot": 2.796e-05,
        "meta_mean_motion_ddot": 0,
        "tle_line1": "1 34576U 93036VN  25355.36131611  .00002796  00000+0  64874-3 0  9993",
        "tle_line2": "2 34576  74.0346 121.8632 0008247 259.4419 133.6081 14.55479899885924"
      },
      "geometry": {
        "type": "Point",
        "coordinates": [
          123.05049830202749,
          6.360048918145159
        ]
      }
    },
    {
      "type": "Feature",
      "properties": {
        "norad_id": 34579,
        "name": "COSMOS 2251 DEB",
        "group": "cosmos-2251-debris",
        "lat": -70.15955049026638,
        "lon": 79.63351257457249,
        "alt_km": 729.0757889895904,
        "timestamp": "2025-12-21T16:47:55.133612+00:00",
        "meta_object_name": "COSMOS 2251 DEB",
        "meta_object_id": "1993-036VR",
        "meta_epoch": "2025-12-21T01:21:37.646208",
        "meta_mean_motion": 14.45328847,
        "meta_eccentricity": 0.00275187,
        "meta_inclination": 74.0516,
        "meta_ra_of_asc_node": 208.409,
        "meta_arg_of_pericenter": 275.8213,
        "meta_mean_anomaly": 236.6643,
        "meta_ephemeris_type": 0,
        "meta_classification_type": "U",
        "meta_norad_cat_id": 34579,
        "meta_element_set_no": 999,
        "meta_rev_at_epoch": 88294,
        "meta_bstar": 0.00026156545,
        "meta_mean_motion_dot": 8.96e-06,
        "meta_mean_motion_ddot": 0,
        "tle_line1": "1 34579U 93036VR  25355.05668572  .00000896  00000+0  26157-3 0  9994",
        "tle_line2": "2 34579  74.0516 208.4090 0027518 275.8213 236.6643 14.45328847882944"
      },
      "geometry": {
        "type": "Point",
        "coordinates": [
          79.63351257457249,
          -70.15955049026638
        ]
      }
    },
    {
      "type": "Feature",
      "properties": {
        "norad_id": 34582,
        "name": "COSMOS 2251 DEB",
        "group": "cosmos-2251-debris",
        "lat": 44.42172370299896,
        "lon": 59.404094422365205,
        "alt_km": 764.9826093115453,
        "timestamp": "2025-12-21T16:47:55.133622+00:00",
        "meta_object_name": "COSMOS 2251 DEB",
        "meta_object_id": "1993-036VU",
        "meta_epoch": "2025-12-21T11:11:43.922112",
        "meta_mean_motion": 14.43366673,
        "meta_eccentricity": 0.0048341,
        "meta_inclination": 74.0199,
        "meta_ra_of_asc_node": 256.1478,
        "meta_arg_of_pericenter": 4.3964,
        "meta_mean_anomaly": 355.7607,
        "meta_ephemeris_type": 0,
        "meta_classification_type": "U",
        "meta_norad_cat_id": 34582,
        "meta_element_set_no": 999,
        "meta_rev_at_epoch": 88073,
        "meta_bstar": 0.00059006,
        "meta_mean_motion_dot": 1.992e-05,
        "meta_mean_motion_ddot": 0,
        "tle_line1": "1 34582U 93036VU  25355.46648058  .00001992  00000+0  59006-3 0  9997",
        "tle_line2": "2 34582  74.0199 256.1478 0048341   4.3964 355.7607 14.43366673880735"
      },
      "geometry": {
        "type": "Point",
        "coordinates": [
          59.404094422365205,
          44.42172370299896
        ]
      }
    },
    {
      "type": "Feature",
      "properties": {
        "norad_id": 34588,
        "name": "COSMOS 2251 DEB",
        "group": "cosmos-2251-debris",
        "lat": 33.18195731518003,
        "lon": 60.86886256762893,
        "alt_km": 762.1111402418182,
        "timestamp": "2025-12-21T16:47:55.133633+00:00",
        "meta_object_name": "COSMOS 2251 DEB",
        "meta_object_id": "1993-036WA",
        "meta_epoch": "2025-12-21T03:30:26.642880",
        "meta_mean_motion": 14.42044077,
        "meta_eccentricity": 0.00192864,
        "meta_inclination": 74.0429,
        "meta_ra_of_asc_node": 252.6785,
        "meta_arg_of_pericenter": 304.5185,
        "meta_mean_anomaly": 206.9531,
        "meta_ephemeris_type": 0,
        "meta_classification_type": "U",
        "meta_norad_cat_id": 34588,
        "meta_element_set_no": 999,
        "meta_rev_at_epoch": 88071,
        "meta_bstar": 0.00029360727,
        "meta_mean_motion_dot": 9.4e-06,
        "meta_mean_motion_ddot": 0,
        "tle_line1": "1 34588U 93036WA  25355.14614170  .00000940  00000+0  29361-3 0  9999",
        "tle_line2": "2 34588  74.0429 252.6785 0019286 304.5185 206.9531 14.42044077880716"
      },
      "geometry": {
        "type": "Point",
        "coordinates": [
          60.86886256762893,
          33.18195731518003
        ]
      }
    }
  ]
}